[Satellite]
VERSION=1.1
NAME=CZ-6A DEB
NICKNAME=CZ-6A DEB
TLE1=1 54627U 22151PD  22342.48944763  .00107460  00000+0  77376-2 0  9992
TLE2=2 54627  98.7860 349.8623 0265548 188.7906 170.8605 14.79631053  2590
STATUS=0
